LUCH 5V (SDCM/PRN 141)  
1 39727U 14023A   22275.50077781 -.00000273  00000+0  00000+0 0  9992
2 39727   1.7478  76.4961 0003232 127.2106  82.5120  1.00268763548939
GPS BIIF-6  (PRN 06)    
1 39741U 14026A   22274.82758640 -.00000071  00000+0  00000+0 0  9991
2 39741  56.6101  24.0946 0026500 305.1735  54.5962  2.00580794 61370
COSMOS 2500 (755)       
1 40001U 14032A   22274.91309142 -.00000067  00000+0  00000+0 0  9993
2 40001  65.7720 359.4306 0007976 196.8220 273.8826  2.13102418 64593
GPS BIIF-7  (PRN 09)    
1 40105U 14045A   22274.91021426  .00000021  00000+0  00000+0 0  9997
2 40105  54.7127 142.5536 0023263 111.2814 249.0542  2.00554428 58917
GSAT0201 (PRN E18)      
1 40128U 14050A   22275.47014401 -.00000061  00000+0  00000+0 0  9990
2 40128  50.2095 328.0181 1619902 127.9406 247.8540  1.85519048 53209
GSAT0202 (PRN E14)      
1 40129U 14050B   22274.11378143 -.00000060  00000+0  00000+0 0  9996
2 40129  50.2340 327.1357 1617252 128.7022 246.9228  1.85519808 55341
IRNSS-1C                
1 40269U 14061A   22275.49842340 -.00000166  00000+0  00000+0 0  9997
2 40269   3.1856 124.4073 0019588   9.0639 140.2001  1.00267915 29117
GPS BIIF-8  (PRN 03)    
1 40294U 14068A   22274.77769019  .00000022  00000+0  00000+0 0  9993
2 40294  55.8991  83.7375 0043074  59.4617 300.9930  2.00578814 58047
COSMOS 2501 (702K)      
1 40315U 14075A   22274.81256605  .00000057  00000+0  00000+0 0  9990
2 40315  63.6772 237.4454 0019237 212.1816 349.9298  2.13101441 60993
GPS BIIF-9  (PRN 26)    
1 40534U 15013A   22274.92453959  .00000043  00000+0  00000+0 0  9994
2 40534  53.6423 260.2821 0071275  19.9109 340.3627  2.00575497 54668
GSAT0203 (PRN E26)      
1 40544U 15017A   22274.79042905 -.00000081  00000+0  00000+0 0  9992
2 40544  56.8280  18.4699 0003645 225.3191 134.6707  1.70476087 46116
GSAT0204 (PRN E22)      
1 40545U 15017B   22274.45680930 -.00000080  00000+0  00000+0 0  9991
2 40545  56.8337  18.4919 0003870 210.0452 149.9524  1.70475583  9155
IRNSS-1D                
1 40547U 15018A   22274.90118854 -.00000278  00000+0  00000+0 0  9994
2 40547  28.7605 263.3545 0019425 191.0419 352.4088  1.00272480 27412
BEIDOU 17 (C31)         
1 40549U 15019A   22275.57254372 -.00000158  00000+0  00000+0 0  9994
2 40549  51.7008 311.5110 0038570 198.3521 163.3885  1.00274215 27510
GPS BIIF-10 (PRN 08)    
1 40730U 15033A   22274.58285532 -.00000040  00000+0  00000+0 0  9994
2 40730  55.1178 322.4011 0075252   7.5197 352.6550  2.00572583 52821
BEIDOU 18 (C57)         
1 40748U 15037A   22275.60354904 -.00000085  00000+0  00000+0 0  9990
2 40748  55.8258 348.1407 0000953  23.0019 340.5679  1.86233565 48912
BEIDOU 19 (C58)         
1 40749U 15037B   22275.34867550 -.00000084  00000+0  00000+0 0  9997
2 40749  55.8292 348.1389 0003292 295.9278  30.9406  1.86233111 48898
GSAT0205 (PRN E24)      
1 40889U 15045A   22274.22410780  .00000035  00000+0  00000+0 0  9991
2 40889  55.5602 259.0403 0004229 351.2651   8.7144  1.70473036 43919
GSAT0206 (PRN E30)      
1 40890U 15045B   22274.44486951  .00000035  00000+0  00000+0 0  9990
2 40890  55.5597 259.0299 0003182 326.1119  33.8554  1.70473041 43947
BEIDOU 20 (C18)         
1 40938U 15053A   22274.95510821 -.00000106  00000+0  00000+0 0  9992
2 40938  51.3393 274.6457 0045848 200.5404 335.6539  1.00268067 25774
GPS BIIF-11 (PRN 10)    
1 41019U 15062A   22274.63228985  .00000022  00000+0  00000+0 0  9991
2 41019  55.8866  83.5884 0081192 217.3822 142.0806  2.00562475 50666
GSAT-15 (GAGAN/PRN 139) 
1 41028U 15065A   22275.50051622 -.00000264  00000+0  00000+0 0  9992
2 41028   0.0483  91.3990 0002516  58.4318 135.0732  1.00271787 25232
GSAT0209 (PRN E09)      
1 41174U 15079A   22272.27271314  .00000048  00000+0  00000+0 0  9991
2 41174  55.1810 138.5485 0002617 335.3036  24.7934  1.70474103 42228
GSAT0208 (PRN E08)      
1 41175U 15079B   22274.25193410  .00000036  00000+0  00000+0 0  9999
2 41175  55.1801 138.4926 0002071 345.9451  14.1473  1.70474049 42253
IRNSS-1E                
1 41241U 16003A   22274.52900772 -.00000287  00000+0  00000+0 0  9997
2 41241  30.2136  82.9657 0020616 178.4730  51.1052  1.00275491 24493
GPS BIIF-12 (PRN 32)    
1 41328U 16007A   22275.21878315  .00000019  00000+0  00000+0 0  9993
2 41328  54.9273 143.2385 0062810 229.8093 129.7244  2.00565775 48688
COSMOS 2514 (751)       
1 41330U 16008A   22274.52889083 -.00000066  00000+0  00000+0 0  9997
2 41330  65.5703 359.1099 0011870 209.6433 150.3383  2.13102554 51753
IRNSS-1F                
1 41384U 16015A   22275.48822097  .00000154  00000+0  00000+0 0  9999
2 41384   2.3235 149.0405 0018226 179.8952 250.3703  1.00273501 24083
BEIDOU IGSO-6 (C13)     
1 41434U 16021A   22275.36229784 -.00000136  00000+0  00000+0 0  9994
2 41434  58.2589  51.7300 0045622 215.1388 329.0471  1.00262494 23906
IRNSS-1G                
1 41469U 16027A   22275.47606932 -.00000340  00000+0  00000+0 0  9991
2 41469   2.2427 151.7017 0002427 357.1570 163.2474  1.00267098 23609
GSAT0211 (PRN E02)      
1 41549U 16030A   22274.95731351  .00000035  00000+0  00000+0 0  9990
2 41549  55.7050 258.9600 0004738 309.9897  49.9575  1.70474579 39582
GSAT0210 (PRN E01)      
1 41550U 16030B   22275.24990241  .00000034  00000+0  00000+0 0  9999
2 41550  55.7042 258.9534 0004606 282.9564  76.9816  1.70474587 39583
COSMOS 2516 (753)       
1 41554U 16032A   22275.23319819  .00000055  00000+0  00000+0 0  9993
2 41554  63.9031 237.7375 0014931 216.4108 228.8171  2.13106446 49376
BEIDOU-2 G7 (C03)       
1 41586U 16037A   22275.43215111 -.00000359  00000+0  00000+0 0  9993
2 41586   1.6086  68.1709 0008110 355.2943 213.8251  1.00272537 23216
E 117 W B (WAAS/PRN 131)
1 41589U 16038B   22275.50396697 -.00000017  00000+0  00000+0 0  9995
2 41589   0.0245  17.0113 0000060  83.0992 335.5530  1.00268291 23132
GSAT0207 (PRN E07)      
1 41859U 16069A   22274.32624698  .00000035  00000+0  00000+0 0  9992
2 41859  54.8427 138.6471 0002312 310.6057  49.4719  1.70472657 36304
GSAT0212 (PRN E03)      
1 41860U 16069B   22274.17965928  .00000036  00000+0  00000+0 0  9992
2 41860  54.8397 138.6485 0001981   7.7644 352.3371  1.70472686 36553
GSAT0213 (PRN E04)      
1 41861U 16069C   22274.54495566  .00000034  00000+0  00000+0 0  9998
2 41861  54.8422 138.6436 0001876 265.5020  94.5732  1.70472880 36422
GSAT0214 (PRN E05)      
1 41862U 16069D   22274.69211006  .00000033  00000+0  00000+0 0  9999
2 41862  54.8407 138.6341 0001067 273.9559  86.1279  1.70472747 36552
SES-15 (WAAS/PRN 133)   
1 42709U 17026A   22275.55894497  .00000054  00000+0  00000+0 0  9994
2 42709   0.0375 353.2251 0000413 145.2448 304.8728  1.00266787 20614
QZS-2 (QZSS/PRN 184)    
1 42738U 17028A   22275.30393236 -.00000151  00000+0  00000+0 0  9995
2 42738  41.6009 262.6585 0748780 270.4700  86.9241  1.00258319 19575
QZS-3 (QZSS/PRN 189)    
1 42917U 17048A   22275.47390135 -.00000354  00000+0  00000+0 0  9994
2 42917   0.0524 197.5532 0001409 352.2554 119.0360  1.00269539 18686
COSMOS 2522 (752)       
1 42939U 17055A   22275.37378659  .00000054  00000+0  00000+0 0  9998
2 42939  64.1371 238.1591 0009733 245.6259 162.4817  2.13102098 39136
QZS-4 (QZSS/PRN 185)    
1 42965U 17062A   22275.55528351 -.00000315  00000+0  00000+0 0  9992
2 42965  40.7434   0.7479 0748587 269.8233  79.4752  1.00276925 18239
BEIDOU-3 M1 (C19)       
1 43001U 17069A   22275.21590714  .00000041  00000+0  00000+0 0  9991
2 43001  55.6165 108.1062 0007745 296.1404 250.4516  1.86231756 33384
BEIDOU-3 M2 (C20)       
1 43002U 17069B   22275.19991742  .00000041  00000+0  00000+0 0  9995
2 43002  55.6149 108.1429 0006237 327.0419 251.6983  1.86231350 33379
GSAT0215 (PRN E21)      
1 43055U 17079A   22274.59526321  .00000035  00000+0  00000+0 0  9997
2 43055  55.6813 258.8009 0004046 278.5123  81.4296  1.70473820 29891
GSAT0216 (PRN E25)      
1 43056U 17079B   22274.30082531  .00000035  00000+0  00000+0 0  9997
2 43056  55.6817 258.8087 0005738 279.9013  80.0208  1.70473938 29904
GSAT0217 (PRN E27)      
1 43057U 17079C   22275.10767836  .00000034  00000+0  00000+0 0  9994
2 43057  55.6793 258.7862 0005254 289.3564  70.5758  1.70473917 29908
GSAT0218 (PRN E31)      
1 43058U 17079D   22274.15454528  .00000035  00000+0  00000+0 0  9991
2 43058  55.6800 258.8098 0006174 276.5170  83.3992  1.70473894 29910
BEIDOU-3 M3 (C27)       
1 43107U 18003A   22275.15535451 -.00000085  00000+0  00000+0 0  9996
2 43107  55.2778 349.0258 0003816  70.7628 284.3912  1.86232594 32138
BEIDOU-3 M4 (C28)       
1 43108U 18003B   22275.36993924 -.00000086  00000+0  00000+0 0  9994
2 43108  55.2711 349.0075 0003786 238.1390 304.1710  1.86231083 32145
BEIDOU-3 M5 (C21)       
1 43207U 18018A   22274.46854974  .00000039  00000+0  00000+0 0  9998
2 43207  55.5738 108.2416 0004585   6.3199 353.7519  1.86231702 31516
BEIDOU-3 M6 (C22)       
1 43208U 18018B   22275.07218682  .00000040  00000+0  00000+0 0  9999
2 43208  55.5737 108.2264 0005542 311.1749  48.8424  1.86231658 31527
BEIDOU-3 M7 (C29)       
1 43245U 18029A   22274.76497182 -.00000082  00000+0  00000+0 0  9998
2 43245  55.1875 346.8002 0001064 201.0875 162.8454  1.86232796 30678
BEIDOU-3 M8 (C30)       
1 43246U 18029B   22275.22202308 -.00000083  00000+0  10000-3 0  9991
2 43246  55.1839 346.8141 0002885 354.5301   2.4561  1.86232992 30668
IRNSS-1I                
1 43286U 18035A   22275.09355205  .00000100  00000+0  00000+0 0  9996
2 43286  29.3062  95.6182 0020699 177.4465 186.4971  1.00270553 16509
COSMOS 2527 (756)       
1 43508U 18053A   22275.50426582  .00000057  00000+0  00000+0 0  9997
2 43508  64.9906 119.2496 0007211 217.9146 322.3591  2.13102587 33425
BEIDOU IGSO-7 (C16)     
1 43539U 18057A   22275.65716058 -.00000149  00000+0  00000+0 0  9994
2 43539  55.0910 174.7839 0051948 227.6376 319.9927  1.00278019 15582
GSAT0221 (PRN E15)      
1 43564U 18060A   22273.46681673 -.00000077  00000+0  00000+0 0  9997
2 43564  57.2093  18.3484 0003137 247.3221 112.6650  1.70476055 26052
